{"type": "FeatureCollection", "features": [ {"type": "Feature", "properties": {"norad_id": 66584, "name": "STARLINK-35939", "group": "last-30-days", "lat": -26.749370611082206, "lon": -78.66877083832124, "alt_km": 399.8673587149433, "timestamp": "2025-12-21T16:47:53.447785+00:00", "meta": {"OBJECT_NAME": "STARLINK-35939", "OBJECT_ID": "2025-268AD", "EPOCH": "2025-12-21T05:04:17.024160", "MEAN_MOTION": 15.56425023, "ECCENTRICITY": 0.0001639, "INCLINATION": 43.0002, "RA_OF_ASC_NODE": 71.4713, "ARG_OF_PERICENTER": 296.27, "MEAN_ANOMALY": 63.7994, "EPHEMERIS_TYPE": 0, "CLASSIFICATION_TYPE": "U", "NORAD_CAT_ID": 66584, "ELEMENT_SET_NO": 999, "REV_AT_EPOCH": 594, "BSTAR": 0.0019125, "MEAN_MOTION_DOT": 0.00140929, "MEAN_MOTION_DDOT": 0}, "tle": {"line1": "1 66584U 25268AD  25355.21130815  .00140929  00000+0  19125-2 0  9997", "line2": "2 66584  43.0002  71.4713 0001639 296.2700  63.7994 15.56425023  5947"}}, "geometry": {"type": "Point", "coordinates": [-78.66877083832124, -26.749370611082206]}}, {"type": "Feature", "properties": {"norad_id": 66585, "name": "STARLINK-35963", "group": "last-30-days", "lat": -27.250588292529898, "lon": -77.86132258379625, "alt_km": 404.18430523951065, "timestamp": "2025-12-21T16:47:53.447809+00:00", "meta": {"OBJECT_NAME": "STARLINK-35963", "OBJECT_ID": "2025-268AE", "EPOCH": "2025-12-21T12:00:02.000160", "MEAN_MOTION": 15.557766, "ECCENTRICITY": 0.0001233, "INCLINATION": 43.0012, "RA_OF_ASC_NODE": 69.7646, "ARG_OF_PERICENTER": 268.8125, "MEAN_ANOMALY": 272.6812, "EPHEMERIS_TYPE": 0, "CLASSIFICATION_TYPE": "U", "NORAD_CAT_ID": 66585, "ELEMENT_SET_NO": 999, "REV_AT_EPOCH": 607, "BSTAR": -0.030589, "MEAN_MOTION_DOT": -0.01911035, "MEAN_MOTION_DDOT": 0}, "tle": {"line1": "1 66585U 25268AE  25355.50002315 -.01911035  00000+0 -30589-1 0  9996", "line2": "2 66585  43.0012  69.7646 0001233 268.8125 272.6812 15.55776600  6074"}}, "geometry": {"type": "Point", "coordinates": [-77.86132258379625, -27.250588292529898]}}, {"type": "Feature", "properties": {"norad_id": 66586, "name": "TJS-21", "group": "last-30-days", "lat": 2.581888555880694, "lon": 162.6878912155209, "alt_km": 8443.592096323857, "timestamp": "2025-12-21T16:47:53.447825+00:00", "meta": {"OBJECT_NAME": "TJS-21", "OBJECT_ID": "2025-269A", "EPOCH": "2025-12-18T16:58:10.473888", "MEAN_MOTION": 2.00580748, "ECCENTRICITY": 0.6806869, "INCLINATION": 63.2733, "RA_OF_ASC_NODE": 161.7218, "ARG_OF_PERICENTER": 269.7428, "MEAN_ANOMALY": 18.6663, "EPHEMERIS_TYPE": 0, "CLASSIFICATION_TYPE": "U", "NORAD_CAT_ID": 66586, "ELEMENT_SET_NO": 999, "REV_AT_EPOCH": 55, "BSTAR": -0.059507049, "MEAN_MOTION_DOT": 1.084e-05, "MEAN_MOTION_DDOT": 0}, "tle": {"line1": "1 66586U 25269A   25352.70706567  .00001084  00000+0 -59507-1 0  9990", "line2": "2 66586  63.2733 161.7218 6806869 269.7428  18.6663  2.00580748   558"}}, "geometry": {"type": "Point", "coordinates": [162.6878912155209, 2.581888555880694]}}, {"type": "Feature", "properties": {"norad_id": 66587, "name": "CZ-3B R/B", "group": "last-30-days", "lat": 24.807503017238623, "lon": -170.77273286432902, "alt_km": 33712.49362707521, "timestamp": "2025-12-21T16:47:53.447841+00:00", "meta": {"OBJECT_NAME": "CZ-3B R/B", "OBJECT_ID": "2025-269B", "EPOCH": "2025-12-18T04:21:45.908640", "MEAN_MOTION": 2.0405465, "ECCENTRICITY": 0.75166459, "INCLINATION": 51.3412, "RA_OF_ASC_NODE": 168.3764, "ARG_OF_PERICENTER": 229.6756, "MEAN_ANOMALY": 36.1575, "EPHEMERIS_TYPE": 0, "CLASSIFICATION_TYPE": "U", "NORAD_CAT_ID": 66587, "ELEMENT_SET_NO": 999, "REV_AT_EPOCH": 56, "BSTAR": 0.00058948144, "MEAN_MOTION_DOT": 0.0008861, "MEAN_MOTION_DDOT": -1.447425e-06}, "tle": {"line1": "1 66587U 25269B   25352.18178135  .00088610 -14474-5  58948-3 0  9993", "line2": "2 66587  51.3412 168.3764 7516645 229.6756  36.1575  2.04054650   560"}}, "geometry": {"type": "Point", "coordinates": [-170.77273286432902, 24.807503017238623]}}, {"type": "Feature", "properties": {"norad_id": 66588, "name": "STARLINK-36076", "group": "last-30-days", "lat": 42.97388485710033, "lon": -130.00174304450664, "alt_km": 438.5774574282477, "timestamp": "2025-12-21T16:47:53.447854+00:00", "meta": {"OBJECT_NAME": "STARLINK-36076", "OBJECT_ID": "2025-270A", "EPOCH": "2025-12-20T18:37:52.441824", "MEAN_MOTION": 15.40705129, "ECCENTRICITY": 0.00022885, "INCLINATION": 42.9999, "RA_OF_ASC_NODE": 146.471, "ARG_OF_PERICENTER": 264.7414, "MEAN_ANOMALY": 95.3181, "EPHEMERIS_TYPE": 0, "CLASSIFICATION_TYPE": "U", "NORAD_CAT_ID": 66588, "ELEMENT_SET_NO": 999, "REV_AT_EPOCH": 558, "BSTAR": 0.00080388566, "MEAN_MOTION_DOT": 0.00033431, "MEAN_MOTION_DDOT": 0}, "tle": {"line1": "1 66588U 25270A   25354.77630141  .00033431  00000+0  80389-3 0  9991", "line2": "2 66588  42.9999 146.4710 0002288 264.7414  95.3181 15.40705129  5587"}}, "geometry": {"type": "Point", "coordinates": [-130.00174304450664, 42.97388485710033]}}, {"type": "Feature", "properties": {"norad_id": 66589, "name": "STARLINK-35447", "group": "last-30-days", "lat": -5.883041707322993, "lon": -32.74531422746201, "alt_km": 444.31889757067165, "timestamp": "2025-12-21T16:47:53.447866+00:00", "meta": {"OBJECT_NAME": "STARLINK-35447", "OBJECT_ID": "2025-270B", "EPOCH": "2025-12-21T11:18:57.032352", "MEAN_MOTION": 15.40714248, "ECCENTRICITY": 0.0001799, "INCLINATION": 43.0007, "RA_OF_ASC_NODE": 142.223, "ARG_OF_PERICENTER": 269.5256, "MEAN_ANOMALY": 90.5395, "EPHEMERIS_TYPE": 0, "CLASSIFICATION_TYPE": "U", "NORAD_CAT_ID": 66589, "ELEMENT_SET_NO": 999, "REV_AT_EPOCH": 580, "BSTAR": 0.00047592, "MEAN_MOTION_DOT": 0.00019638, "MEAN_MOTION_DDOT": 0}, "tle": {"line1": "1 66589U 25270B   25355.47149343  .00019638  00000+0  47592-3 0  9991", "line2": "2 66589  43.0007 142.2230 0001799 269.5256  90.5395 15.40714248  5805"}}, "geometry": {"type": "Point", "coordinates": [-32.74531422746201, -5.883041707322993]}}, {"type": "Feature", "properties": {"norad_id": 66590, "name": "STARLINK-35429", "group": "last-30-days", "lat": -42.724075289848614, "lon": 58.35496573273193, "alt_km": 446.5499278111547, "timestamp": "2025-12-21T16:47:53.447876+00:00", "meta": {"OBJECT_NAME": "STARLINK-35429", "OBJECT_ID": "2025-270C", "EPOCH": "2025-12-21T12:00:02.000160", "MEAN_MOTION": 15.40686316, "ECCENTRICITY": 0.0001293, "INCLINATION": 43.0002, "RA_OF_ASC_NODE": 141.8503, "ARG_OF_PERICENTER": 271.6395, "MEAN_ANOMALY": 333.9212, "EPHEMERIS_TYPE": 0, "CLASSIFICATION_TYPE": "U", "NORAD_CAT_ID": 66590, "ELEMENT_SET_NO": 999, "REV_AT_EPOCH": 591, "BSTAR": 0.0003592, "MEAN_MOTION_DOT": 0.00014723, "MEAN_MOTION_DDOT": 0}, "tle": {"line1": "1 66590U 25270C   25355.50002315  .00014723  00000+0  35920-3 0  9996", "line2": "2 66590  43.0002 141.8503 0001293 271.6395 333.9212 15.40686316  5915"}}, "geometry": {"type": "Point", "coordinates": [58.35496573273193, -42.724075289848614]}}, {"type": "Feature", "properties": {"norad_id": 66591, "name": "STARLINK-36058", "group": "last-30-days", "lat": 1.7286750669702895, "lon": 142.3421812046532, "alt_km": 443.15759335494477, "timestamp": "2025-12-21T16:47:53.447886+00:00", "meta": {"OBJECT_NAME": "STARLINK-36058", "OBJECT_ID": "2025-270D", "EPOCH": "2025-12-21T12:00:02.000160", "MEAN_MOTION": 15.40684891, "ECCENTRICITY": 0.0001454, "INCLINATION": 42.9999, "RA_OF_ASC_NODE": 141.6384, "ARG_OF_PERICENTER": 298.3108, "MEAN_ANOMALY": 34.231, "EPHEMERIS_TYPE": 0, "CLASSIFICATION_TYPE": "U", "NORAD_CAT_ID": 66591, "ELEMENT_SET_NO": 999, "REV_AT_EPOCH": 580, "BSTAR": 0.00051664, "MEAN_MOTION_DOT": 0.00021327, "MEAN_MOTION_DDOT": 0}, "tle": {"line1": "1 66591U 25270D   25355.50002315  .00021327  00000+0  51664-3 0  9998", "line2": "2 66591  42.9999 141.6384 0001454 298.3108  34.2310 15.40684891  5805"}}, "geometry": {"type": "Point", "coordinates": [142.3421812046532, 1.7286750669702895]}}, {"type": "Feature", "properties": {"norad_id": 66592, "name": "STARLINK-36066", "group": "last-30-days", "lat": 26.49818024279739, "lon": -71.31691985553297, "alt_km": 440.40400841644623, "timestamp": "2025-12-21T16:47:53.447896+00:00", "meta": {"OBJECT_NAME": "STARLINK-36066", "OBJECT_ID": "2025-270E", "EPOCH": "2025-12-20T19:58:19.508736", "MEAN_MOTION": 15.40756255, "ECCENTRICITY": 0.00020419, "INCLINATION": 43.0017, "RA_OF_ASC_NODE": 146.0271, "ARG_OF_PERICENTER": 265.6058, "MEAN_ANOMALY": 94.4565, "EPHEMERIS_TYPE": 0, "CLASSIFICATION_TYPE": "U", "NORAD_CAT_ID": 66592, "ELEMENT_SET_NO": 999, "REV_AT_EPOCH": 549, "BSTAR": 0.00093716384, "MEAN_MOTION_DOT": 0.00039119, "MEAN_MOTION_DDOT": 0}, "tle": {"line1": "1 66592U 25270E   25354.83217024  .00039119  00000+0  93716-3 0  9991", "line2": "2 66592  43.0017 146.0271 0002041 265.6058  94.4565 15.40756255  5496"}}, "geometry": {"type": "Point", "coordinates": [-71.31691985553297, 26.49818024279739]}}, {"type": "Feature", "properties": {"norad_id": 66593, "name": "STARLINK-36031", "group": "last-30-days", "lat": -29.341309783388223, "lon": -2.078927964487279, "alt_km": 446.06838767859244, "timestamp": "2025-12-21T16:47:53.447907+00:00", "meta": {"OBJECT_NAME": "STARLINK-36031", "OBJECT_ID": "2025-270F", "EPOCH": "2025-12-21T11:09:16.720704", "MEAN_MOTION": 15.40726951, "ECCENTRICITY": 0.0001174, "INCLINATION": 42.9983, "RA_OF_ASC_NODE": 142.1724, "ARG_OF_PERICENTER": 275.4783, "MEAN_ANOMALY": 84.5939, "EPHEMERIS_TYPE": 0, "CLASSIFICATION_TYPE": "U", "NORAD_CAT_ID": 66593, "ELEMENT_SET_NO": 999, "REV_AT_EPOCH": 569, "BSTAR": 0.00095859, "MEAN_MOTION_DOT": 0.00039985, "MEAN_MOTION_DDOT": 0}, "tle": {"line1": "1 66593U 25270F   25355.46477686  .00039985  00000+0  95859-3 0  9995", "line2": "2 66593  42.9983 142.1724 0001174 275.4783  84.5939 15.40726951  5694"}}, "geometry": {"type": "Point", "coordinates": [-2.078927964487279, -29.341309783388223]}}]}